[Satellite]
VERSION=1.1
NAME=GOMX 1
NICKNAME=GOMX 1
TLE1=1 39430U 13066Q   25178.68937395  .00001364  00000-0  21719-3 0  9995
TLE2=2 39430  97.6818  36.2411 0133394 134.0154 227.2137 14.67696342618061
STATUS=0
